CCSDS_OMM_VERS = 2.0
CREATION_DATE  = 
ORIGINATOR     = 

OBJECT_NAME    = HTV-X1
OBJECT_ID      = 2025-241A
CENTER_NAME    = EARTH
REF_FRAME      = TEME
TIME_SYSTEM    = UTC
MEAN_ELEMENT_THEORY = SGP/SGP4

EPOCH          = 2026-03-14T08:15:41.718240
MEAN_MOTION    = 15.22910005
ECCENTRICITY   = .00057324
INCLINATION    = 51.6357
RA_OF_ASC_NODE = 50.7100
ARG_OF_PERICENTER = 187.3443
MEAN_ANOMALY   = 172.7451

EPHEMERIS_TYPE = 0
CLASSIFICATION_TYPE = U
NORAD_CAT_ID   = 66174
ELEMENT_SET_NO = 999
REV_AT_EPOCH   = 2166
BSTAR          = .5679389E-3
MEAN_MOTION_DOT = .13198E-3
MEAN_MOTION_DDOT = 0

CCSDS_OMM_VERS = 2.0
CREATION_DATE  = 
ORIGINATOR     = 

OBJECT_NAME    = SZ-21 MODULE
OBJECT_ID      = 2025-246C
CENTER_NAME    = EARTH
REF_FRAME      = TEME
TIME_SYSTEM    = UTC
MEAN_ELEMENT_THEORY = SGP/SGP4

EPOCH          = 2026-03-21T11:12:15.021792
MEAN_MOTION    = 15.69416667
ECCENTRICITY   = .00003959
INCLINATION    = 41.4731
RA_OF_ASC_NODE = 130.8135
ARG_OF_PERICENTER = 237.2260
MEAN_ANOMALY   = 122.8544

EPHEMERIS_TYPE = 0
CLASSIFICATION_TYPE = U
NORAD_CAT_ID   = 66515
ELEMENT_SET_NO = 999
REV_AT_EPOCH   = 1992
BSTAR          = .3837318E-3
MEAN_MOTION_DOT = .46337E-3
MEAN_MOTION_DDOT = 0

CCSDS_OMM_VERS = 2.0
CREATION_DATE  = 
ORIGINATOR     = 

OBJECT_NAME    = SHENZHOU-22
OBJECT_ID      = 2025-272A
CENTER_NAME    = EARTH
REF_FRAME      = TEME
TIME_SYSTEM    = UTC
MEAN_ELEMENT_THEORY = SGP/SGP4

EPOCH          = 2026-03-21T13:14:21.613056
MEAN_MOTION    = 15.61263554
ECCENTRICITY   = .00054317
INCLINATION    = 41.4661
RA_OF_ASC_NODE = 135.9532
ARG_OF_PERICENTER = 348.5406
MEAN_ANOMALY   = 11.5308

EPHEMERIS_TYPE = 0
CLASSIFICATION_TYPE = U
NORAD_CAT_ID   = 66645
ELEMENT_SET_NO = 999
REV_AT_EPOCH   = 27910
BSTAR          = .33070013E-3
MEAN_MOTION_DOT = .28655E-3
MEAN_MOTION_DDOT = 0

CCSDS_OMM_VERS = 2.0
CREATION_DATE  = 
ORIGINATOR     = 

OBJECT_NAME    = SOYUZ-MS 28
OBJECT_ID      = 2025-275A
CENTER_NAME    = EARTH
REF_FRAME      = TEME
TIME_SYSTEM    = UTC
MEAN_ELEMENT_THEORY = SGP/SGP4

EPOCH          = 2026-03-21T12:25:18.954336
MEAN_MOTION    = 15.48422342
ECCENTRICITY   = .000631
INCLINATION    = 51.6347
RA_OF_ASC_NODE = 13.8885
ARG_OF_PERICENTER = 215.8915
MEAN_ANOMALY   = 144.1650

EPHEMERIS_TYPE = 0
CLASSIFICATION_TYPE = U
NORAD_CAT_ID   = 66664
ELEMENT_SET_NO = 999
REV_AT_EPOCH   = 55771
BSTAR          = .26848155E-3
MEAN_MOTION_DOT = .1408E-3
MEAN_MOTION_DDOT = 0

CCSDS_OMM_VERS = 2.0
CREATION_DATE  = 
ORIGINATOR     = 

OBJECT_NAME    = DUPLEX
OBJECT_ID      = 1998-067XS
CENTER_NAME    = EARTH
REF_FRAME      = TEME
TIME_SYSTEM    = UTC
MEAN_ELEMENT_THEORY = SGP/SGP4

EPOCH          = 2026-03-21T12:39:18.940320
MEAN_MOTION    = 15.56940206
ECCENTRICITY   = .00030994
INCLINATION    = 51.6307
RA_OF_ASC_NODE = 10.2070
ARG_OF_PERICENTER = 163.5582
MEAN_ANOMALY   = 196.5511

EPHEMERIS_TYPE = 0
CLASSIFICATION_TYPE = U
NORAD_CAT_ID   = 66906
ELEMENT_SET_NO = 999
REV_AT_EPOCH   = 1697
BSTAR          = .53199276E-3
MEAN_MOTION_DOT = .38764E-3
MEAN_MOTION_DDOT = 0

CCSDS_OMM_VERS = 2.0
CREATION_DATE  = 
ORIGINATOR     = 

OBJECT_NAME    = ISS OBJECT XT
OBJECT_ID      = 1998-067XT
CENTER_NAME    = EARTH
REF_FRAME      = TEME
TIME_SYSTEM    = UTC
MEAN_ELEMENT_THEORY = SGP/SGP4

EPOCH          = 2026-03-21T00:45:30.072384
MEAN_MOTION    = 15.72936378
ECCENTRICITY   = .00052843
INCLINATION    = 51.6258
RA_OF_ASC_NODE = 7.6205
ARG_OF_PERICENTER = 153.4746
MEAN_ANOMALY   = 206.6524

EPHEMERIS_TYPE = 0
CLASSIFICATION_TYPE = U
NORAD_CAT_ID   = 66907
ELEMENT_SET_NO = 999
REV_AT_EPOCH   = 1696
BSTAR          = .13141675E-2
MEAN_MOTION_DOT = .186272E-2
MEAN_MOTION_DDOT = 0

CCSDS_OMM_VERS = 2.0
CREATION_DATE  = 
ORIGINATOR     = 

OBJECT_NAME    = ISS OBJECT XU
OBJECT_ID      = 1998-067XU
CENTER_NAME    = EARTH
REF_FRAME      = TEME
TIME_SYSTEM    = UTC
MEAN_ELEMENT_THEORY = SGP/SGP4

EPOCH          = 2026-03-21T00:41:29.021568
MEAN_MOTION    = 15.73089438
ECCENTRICITY   = .00055113
INCLINATION    = 51.6252
RA_OF_ASC_NODE = 7.5980
ARG_OF_PERICENTER = 153.1323
MEAN_ANOMALY   = 206.9962

EPHEMERIS_TYPE = 0
CLASSIFICATION_TYPE = U
NORAD_CAT_ID   = 66908
ELEMENT_SET_NO = 999
REV_AT_EPOCH   = 1696
BSTAR          = .14030412E-2
MEAN_MOTION_DOT = .200572E-2
MEAN_MOTION_DDOT = 0

CCSDS_OMM_VERS = 2.0
CREATION_DATE  = 
ORIGINATOR     = 

OBJECT_NAME    = SILVERSAT
OBJECT_ID      = 1998-067XV
CENTER_NAME    = EARTH
REF_FRAME      = TEME
TIME_SYSTEM    = UTC
MEAN_ELEMENT_THEORY = SGP/SGP4

EPOCH          = 2026-03-21T12:17:36.322080
MEAN_MOTION    = 15.77449180
ECCENTRICITY   = .00060233
INCLINATION    = 51.6233
RA_OF_ASC_NODE = 4.0686
ARG_OF_PERICENTER = 160.8728
MEAN_ANOMALY   = 199.2500

EPHEMERIS_TYPE = 0
CLASSIFICATION_TYPE = U
NORAD_CAT_ID   = 66909
ELEMENT_SET_NO = 999
REV_AT_EPOCH   = 1705
BSTAR          = .19790942E-2
MEAN_MOTION_DOT = .348638E-2
MEAN_MOTION_DDOT = 0

CCSDS_OMM_VERS = 2.0
CREATION_DATE  = 
ORIGINATOR     = 

OBJECT_NAME    = ISS OBJECT XW
OBJECT_ID      = 1998-067XW
CENTER_NAME    = EARTH
REF_FRAME      = TEME
TIME_SYSTEM    = UTC
MEAN_ELEMENT_THEORY = SGP/SGP4

EPOCH          = 2026-03-21T00:46:55.096032
MEAN_MOTION    = 15.71910553
ECCENTRICITY   = .00058519
INCLINATION    = 51.6252
RA_OF_ASC_NODE = 7.6193
ARG_OF_PERICENTER = 154.3698
MEAN_ANOMALY   = 205.7591

EPHEMERIS_TYPE = 0
CLASSIFICATION_TYPE = U
NORAD_CAT_ID   = 66910
ELEMENT_SET_NO = 999
REV_AT_EPOCH   = 1696
BSTAR          = .12769001E-2
MEAN_MOTION_DOT = .17299E-2
MEAN_MOTION_DDOT = 0

CCSDS_OMM_VERS = 2.0
CREATION_DATE  = 
ORIGINATOR     = 

OBJECT_NAME    = ISS OBJECT XX
OBJECT_ID      = 1998-067XX
CENTER_NAME    = EARTH
REF_FRAME      = TEME
TIME_SYSTEM    = UTC
MEAN_ELEMENT_THEORY = SGP/SGP4

EPOCH          = 2026-03-21T11:31:02.036352
MEAN_MOTION    = 15.82190962
ECCENTRICITY   = .00075932
INCLINATION    = 51.6206
RA_OF_ASC_NODE = 3.0741
ARG_OF_PERICENTER = 163.5848
MEAN_ANOMALY   = 196.5401

EPHEMERIS_TYPE = 0
CLASSIFICATION_TYPE = U
NORAD_CAT_ID   = 66911
ELEMENT_SET_NO = 999
REV_AT_EPOCH   = 1705
BSTAR          = .21416363E-2
MEAN_MOTION_DOT = .475515E-2
MEAN_MOTION_DDOT = 0

CCSDS_OMM_VERS = 2.0
CREATION_DATE  = 
ORIGINATOR     = 

OBJECT_NAME    = ISS OBJECT XY
OBJECT_ID      = 1998-067XY
CENTER_NAME    = EARTH
REF_FRAME      = TEME
TIME_SYSTEM    = UTC
MEAN_ELEMENT_THEORY = SGP/SGP4

EPOCH          = 2026-03-21T12:34:04.346688
MEAN_MOTION    = 15.65954710
ECCENTRICITY   = .0003878
INCLINATION    = 51.6282
RA_OF_ASC_NODE = 7.1735
ARG_OF_PERICENTER = 158.9718
MEAN_ANOMALY   = 201.1438

EPHEMERIS_TYPE = 0
CLASSIFICATION_TYPE = U
NORAD_CAT_ID   = 66912
ELEMENT_SET_NO = 999
REV_AT_EPOCH   = 1700
BSTAR          = .12251516E-2
MEAN_MOTION_DOT = .129023E-2
MEAN_MOTION_DDOT = 0

CCSDS_OMM_VERS = 2.0
CREATION_DATE  = 
ORIGINATOR     = 

OBJECT_NAME    = KNACKSAT-2
OBJECT_ID      = 1998-067XZ
CENTER_NAME    = EARTH
REF_FRAME      = TEME
TIME_SYSTEM    = UTC
MEAN_ELEMENT_THEORY = SGP/SGP4

EPOCH          = 2026-03-21T12:12:23.421024
MEAN_MOTION    = 15.52759437
ECCENTRICITY   = .00097487
INCLINATION    = 51.6323
RA_OF_ASC_NODE = 13.0810
ARG_OF_PERICENTER = 227.9080
MEAN_ANOMALY   = 132.1082

EPHEMERIS_TYPE = 0
CLASSIFICATION_TYPE = U
NORAD_CAT_ID   = 67683
ELEMENT_SET_NO = 999
REV_AT_EPOCH   = 662
BSTAR          = .85040514E-3
MEAN_MOTION_DOT = .53549E-3
MEAN_MOTION_DDOT = 0

